GLOBALSTAR M057         
1 25943U 99058A   25244.41583841 -.00000104  00000+0 -10122-3 0  9990
2 25943  51.9980 131.8673 0002513 154.2309 205.8666 12.24826586176271
GLOBALSTAR M059         
1 25944U 99058B   25244.62982398  .00000030  00000+0  14405-2 0  9997
2 25944  52.0050   0.3710 0001158 106.5397 266.8184 11.99984257583225
GLOBALSTAR M056         
1 25945U 99058C   25244.57344840 -.00000109  00000+0 -25584-3 0  9996
2 25945  51.9998   0.5237 0000668  20.3484 352.4952 12.04779093171838
GLOBALSTAR M031         
1 25946U 99058D   25244.54473545 -.00000138  00000+0 -48244-3 0  9999
2 25946  51.9944 248.3604 0001321 339.1850 169.2744 12.16040014173837
GLOBALSTAR M039         
1 25961U 99062A   25244.57369089 -.00000058  00000+0  25733-3 0  9999
2 25961  51.9857  36.0552 0003100 142.9707 217.1374 12.62331403189867
GLOBALSTAR M034         
1 25962U 99062B   25244.58669198 -.00000078  00000+0  42208-4 0  9994
2 25962  51.9864 172.7918 0013672 184.7528 346.4151 11.79448077147406
GLOBALSTAR M029         
1 25963U 99062C   25244.42558549 -.00000032  00000+0  67669-3 0  9992
2 25963  51.9779 248.8952 0002457 269.7242 239.0307 11.99900470178272
GLOBALSTAR M061         
1 25964U 99062D   25244.55757323 -.00000100  00000+0 -32963-3 0  9994
2 25964  51.9831 357.9176 0006621 108.7934 264.4271 11.76775431130170
